$$SOE
2460147.500000000, A.D. 2023-Jul-22 00:00:00.0000, -1.062075833886928E+08, -2.672241778011092E+08, 2.086901478312860E+07,
2460154.500000000, A.D. 2023-Jul-29 00:00:00.0000, -9.448582637683916E+07, -2.717536923068737E+08, 2.455465269909552E+07,
2460161.500000000, A.D. 2023-Aug-05 00:00:00.0000, -8.257361846032949E+07, -2.757353851494167E+08, 2.819079685463747E+07,
2460168.500000000, A.D. 2023-Aug-12 00:00:00.0000, -7.049575837008511E+07, -2.791638444268027E+08, 3.177038446486594E+07,
2460175.500000000, A.D. 2023-Aug-19 00:00:00.0000, -5.827715880756569E+07, -2.820348758029889E+08, 3.528653877843565E+07,
2460182.500000000, A.D. 2023-Aug-26 00:00:00.0000, -4.594278602868722E+07, -2.843454896342763E+08, 3.873258171658598E+07,
2460189.500000000, A.D. 2023-Sep-02 00:00:00.0000, -3.351760135798197E+07, -2.860938850584092E+08, 4.210204549184556E+07,
2460196.500000000, A.D. 2023-Sep-09 00:00:00.0000, -2.102650474601790E+07, -2.872794313303244E+08, 4.538868320417301E+07,
2460203.500000000, A.D. 2023-Sep-16 00:00:00.0000, -8.494280330821572E+06, -2.879026467073182E+08, 4.858647840655452E+07,
2460210.500000000, A.D. 2023-Sep-23 00:00:00.0000, 4.054456307425020E+06, -2.879651748394166E+08, 5.168965364289342E+07,
2460217.500000000, A.D. 2023-Sep-30 00:00:00.0000, 1.659530877653557E+07, -2.874697577138023E+08, 5.469267810891333E+07,
2460224.500000000, A.D. 2023-Oct-07 00:00:00.0000, 2.910414597342795E+07, -2.864202059294919E+08, 5.759027463345478E+07,
2460231.500000000, A.D. 2023-Oct-14 00:00:00.0000, 4.155714465872144E+07, -2.848213698424955E+08, 6.037742564313015E+07,
2460238.500000000, A.D. 2023-Oct-21 00:00:00.0000, 5.393083171647548E+07, -2.826791102037364E+08, 6.304937797963341E+07,
2460245.500000000, A.D. 2023-Oct-28 00:00:00.0000, 6.620212467357766E+07, -2.800002662481765E+08, 6.560164692404269E+07,
2460252.500000000, A.D. 2023-Nov-04 00:00:00.0000, 7.834836924288890E+07, -2.767926222118448E+08, 6.803001952068183E+07,
2460259.500000000, A.D. 2023-Nov-11 00:00:00.0000, 9.034737409693111E+07, -2.730648730710796E+08, 7.033055717748275E+07,
2460266.500000000, A.D. 2023-Nov-18 00:00:00.0000, 1.021774431336291E+08, -2.688265897512428E+08, 7.249959756081177E+07,
2460273.500000000, A.D. 2023-Nov-25 00:00:00.0000, 1.138174053596702E+08, -2.640881839523894E+08, 7.453375582296291E+07,
2460280.500000000, A.D. 2023-Dec-02 00:00:00.0000, 1.252466424833256E+08, -2.588608727588474E+08, 7.642992520047265E+07,
2460287.500000000, A.D. 2023-Dec-09 00:00:00.0000, 1.364451143703190E+08, -2.531566432348176E+08, 7.818527701336379E+07,
2460294.500000000, A.D. 2023-Dec-16 00:00:00.0000, 1.473933827351885E+08, -2.469882171274485E+08, 7.979726008489992E+07,
2460301.500000000, A.D. 2023-Dec-23 00:00:00.0000, 1.580726335049388E+08, -2.403690151142451E+08, 8.126359965207012E+07,
2460308.500000000, A.D. 2023-Dec-30 00:00:00.0000, 1.684646966045758E+08, -2.333131196565738E+08, 8.258229601861231E+07,
2460315.500000000, A.D. 2024-Jan-06 00:00:00.0000, 1.785520614837853E+08, -2.258352389142303E+08, 8.375162295841406E+07,
2460322.500000000, A.D. 2024-Jan-13 00:00:00.0000, 1.883178916541812E+08, -2.179506736071240E+08, 8.477012546601292E+07,
2460329.500000000, A.D. 2024-Jan-20 00:00:00.0000, 1.977460395623594E+08, -2.096752838104166E+08, 8.563661703080630E+07,
2460336.500000000, A.D. 2024-Jan-27 00:00:00.0000, 2.068210598716017E+08, -2.010254550937533E+08, 8.635017671097711E+07,
2460343.500000000, A.D. 2024-Feb-03 00:00:00.0000, 2.155282208235704E+08, -1.920180650048320E+08, 8.691014600287205E+07,
2460350.500000000, A.D. 2024-Feb-10 00:00:00.0000, 2.238535140559090E+08, -1.826704502291847E+08, 8.731612548811594E+07,
2460357.500000000, A.D. 2024-Feb-17 00:00:00.0000, 2.317836631117297E+08, -1.730003744495626E+08, 8.756797127610581E+07,
2460364.500000000, A.D. 2024-Feb-24 00:00:00.0000, 2.393061307720879E+08, -1.630259969132447E+08, 8.766579126783535E+07,
2460371.500000000, A.D. 2024-Mar-02 00:00:00.0000, 2.464091253322655E+08, -1.527658417553383E+08, 8.760994126123486E+07,
2460378.500000000, A.D. 2024-Mar-09 00:00:00.0000, 2.530816060474130E+08, -1.422387681474702E+08, 8.740102090182535E+07,
2460385.500000000, A.D. 2024-Mar-16 00:00:00.0000, 2.593132882278933E+08, -1.314639410708248E+08, 8.703986947855984E+07,
2460392.500000000, A.D. 2024-Mar-23 00:00:00.0000, 2.650946479674228E+08, -1.204608015973338E+08, 8.652756168870631E+07,
2460399.500000000, A.D. 2024-Mar-30 00:00:00.0000, 2.704169243439240E+08, -1.092490367027537E+08, 8.586540359843944E+07,
2460406.500000000, A.D. 2024-Apr-06 00:00:00.0000, 2.752721194148293E+08, -9.784855197130023E+07, 8.505492851210585E+07,
2460413.500000000, A.D. 2024-Apr-13 00:00:00.0000, 2.796529996137244E+08, -8.627944633244228E+07, 8.409789249443287E+07,
2460420.500000000, A.D. 2024-Apr-20 00:00:00.0000, 2.835530976520988E+08, -7.456198611906463E+07, 8.299626985285276E+07,
2460427.500000000, A.D. 2024-Apr-27 00:00:00.0000, 2.869667134668067E+08, -6.271657896768817E+07, 8.175224867832303E+07,
2460434.500000000, A.D. 2024-May-04 00:00:00.0000, 2.898889143597351E+08, -5.076374822161222E+07, 8.036822639014502E+07,
2460441.500000000, A.D. 2024-May-11 00:00:00.0000, 2.923155346242431E+08, -3.872410790006266E+07, 7.884680526917163E+07,
2460448.500000000, A.D. 2024-May-18 00:00:00.0000, 2.942431747893813E+08, -2.661833817704729E+07, 7.719078798568061E+07,
2460455.500000000, A.D. 2024-May-25 00:00:00.0000, 2.956692005467097E+08, -1.446716134198555E+07, 7.540317312505640E+07,
2460462.500000000, A.D. 2024-Jun-01 00:00:00.0000, 2.965917414523998E+08, -2.291318261344217E+06, 7.348715070186874E+07,
2460469.500000000, A.D. 2024-Jun-08 00:00:00.0000, 2.970096896767887E+08, 9.888454675961349E+06, 7.144609763439371E+07,
2460476.500000000, A.D. 2024-Jun-15 00:00:00.0000, 2.969226992157848E+08, 2.205144871856899E+07, 6.928357317903151E+07,
2460483.500000000, A.D. 2024-Jun-22 00:00:00.0000, 2.963311845701067E+08, 3.417700724732397E+07, 6.700331450612961E+07,
2460490.500000000, A.D. 2024-Jun-29 00:00:00.0000, 2.952363167920769E+08, 4.624454983527438E+07, 6.460923246372658E+07,
2460497.500000000, A.D. 2024-Jul-06 00:00:00.0000, 2.936400195577703E+08, 5.823359344185816E+07, 6.210540707929257E+07,
2460504.500000000, A.D. 2024-Jul-13 00:00:00.0000, 2.915449672091816E+08, 7.012377360983925E+07, 5.949608283911446E+07,
2460511.500000000, A.D. 2024-Jul-20 00:00:00.0000, 2.889545827744492E+08, 8.189486686261776E+07, 5.678566401115641E+07,
2460518.500000000, A.D. 2024-Jul-27 00:00:00.0000, 2.858730353029749E+08, 9.352681338912842E+07, 5.397870998383857E+07,
2460525.500000000, A.D. 2024-Aug-03 00:00:00.0000, 2.823052367761967E+08, 1.049997396858610E+08, 5.107993055448726E+07,
2460532.500000000, A.D. 2024-Aug-10 00:00:00.0000, 2.782568387421057E+08, 1.162939811945821E+08, 4.809418114016072E+07,
2460539.500000000, A.D. 2024-Aug-17 00:00:00.0000, 2.737342286980929E+08, 1.273901049990165E+08, 4.502645789574104E+07,
2460546.500000000, A.D. 2024-Aug-24 00:00:00.0000, 2.687445262225949E+08, 1.382689325981567E+08, 4.188189272176179E+07,
2460553.500000000, A.D. 2024-Aug-31 00:00:00.0000, 2.632955789402745E+08, 1.489115627330447E+08, 3.866574813282374E+07,
2460560.500000000, A.D. 2024-Sep-07 00:00:00.0000, 2.573959586534769E+08, 1.592993944281090E+08, 3.538341194912455E+07,
2460567.500000000, A.D. 2024-Sep-14 00:00:00.0000, 2.510549576841684E+08, 1.694141512678724E+08, 3.204039186697069E+07,
2460574.500000000, A.D. 2024-Sep-21 00:00:00.0000, 2.442825833386006E+08, 1.792379073461365E+08, 2.864231010915701E+07,
2460581.500000000, A.D. 2024-Sep-28 00:00:00.0000, 2.370895499581737E+08, 1.887531116973897E+08, 2.519489792375881E+07,
2460588.500000000, A.D. 2024-Oct-05 00:00:00.0000, 2.294872721864215E+08, 1.979426112344484E+08, 2.170398957959990E+07,
2460595.500000000, A.D. 2024-Oct-12 00:00:00.0000, 2.214878590304823E+08, 2.067896751820590E+08, 1.817551611478499E+07,
2460602.500000000, A.D. 2024-Oct-19 00:00:00.0000, 2.131041068995387E+08, 2.152780207479979E+08, 1.461549895849396E+07,
2460609.500000000, A.D. 2024-Oct-26 00:00:00.0000, 2.043494915238240E+08, 2.233918392392126E+08, 1.103004334586798E+07,
2460616.500000000, A.D. 2024-Nov-02 00:00:00.0000, 1.952381589462635E+08, 2.311158224753692E+08, 7.425331471728817E+06,
2460623.500000000, A.D. 2024-Nov-09 00:00:00.0000, 1.857849156144304E+08, 2.384351895108328E+08, 3.807615356703281E+06,
2460630.500000000, A.D. 2024-Nov-16 00:00:00.0000, 1.760052175235113E+08, 2.453357136439537E+08, 1.832094044359177E+05,
2460637.500000000, A.D. 2024-Nov-23 00:00:00.0000, 1.659151583727858E+08, 2.518037496325146E+08, -3.441517375335038E+06,
2460644.500000000, A.D. 2024-Nov-30 00:00:00.0000, 1.555314568505470E+08, 2.578262610383579E+08, -7.060149513431937E+06,
2460651.500000000, A.D. 2024-Dec-07 00:00:00.0000, 1.448714433724343E+08, 2.633908480922579E+08, -1.066623361139138E+07,
2460658.500000000, A.D. 2024-Dec-14 00:00:00.0000, 1.339530454991442E+08, 2.684857772708797E+08, -1.425328710132796E+07,
2460665.500000000, A.D. 2024-Dec-21 00:00:00.0000, 1.227947696263739E+08, 2.731000112959242E+08, -1.781480713242812E+07,
2460672.500000000, A.D. 2024-Dec-28 00:00:00.0000, 1.114156808332948E+08, 2.772232365500616E+08, -2.134428001571001E+07,
2460679.500000000, A.D. 2025-Jan-04 00:00:00.0000, 9.983538342843746E+07, 2.808458902394530E+08, -2.483519128563629E+07,
2460686.500000000, A.D. 2025-Jan-11 00:00:00.0000, 8.807400030954589E+07, 2.839591888743907E+08, -2.828103608870469E+07,
2460693.500000000, A.D. 2025-Jan-18 00:00:00.0000, 7.615215014808427E+07, 2.865551570391542E+08, -3.167532989568503E+07,
2460700.500000000, A.D. 2025-Jan-25 00:00:00.0000, 6.409092256359480E+07, 2.886266558513911E+08, -3.501161959546438E+07,
2460707.500000000, A.D. 2025-Feb-01 00:00:00.0000, 5.191185138990118E+07, 2.901674109521051E+08, -3.828349497872105E+07,
2460714.500000000, A.D. 2025-Feb-08 00:00:00.0000, 3.963688600529911E+07, 2.911720399291477E+08, -4.148460060195969E+07,
$$EOE